CCSDS_OEM_VERS = 1.0
CREATION_DATE  = 2017-05-11T11:00:28
ORIGINATOR     = GMAT USER

META_START
OBJECT_NAME          = MOPSSat_alt_35785_km_RAAN_0_063
OBJECT_ID            = SatId
CENTER_NAME          = Earth
REF_FRAME            = EME2000
TIME_SYSTEM          = UTC
START_TIME           = 2017-01-01T00:00:00.000
USEABLE_START_TIME   = 2017-01-01T00:00:00.000
USEABLE_STOP_TIME    = 2017-01-02T00:00:00.000
STOP_TIME            = 2017-01-02T00:00:00.000
INTERPOLATION        = Lagrange
INTERPOLATION_DEGREE = 7 
META_STOP


                                                                                   

2017-01-01T11:09:10.000  -4.120930743655879e+04   8.928695218573666e+03   3.124549492513471e+02  -6.516897946208977e-01  -3.002809250315809e+00  -1.048170823497070e-01
2017-01-01T11:09:20.000  -4.121581337914048e+04   8.898664754913740e+03   3.114066955679687e+02  -6.494986415051263e-01  -3.003283111091838e+00  -1.048336413925826e-01
2017-01-01T11:09:30.000  -4.122229740845069e+04   8.868629560697511e+03   3.103582765751448e+02  -6.473071434764837e-01  -3.003755375015213e+00  -1.048501447079279e-01
2017-01-01T11:09:40.000  -4.122875952102062e+04   8.838589652011637e+03   3.093096928342740e+02  -6.451153017085507e-01  -3.004226041833696e+00  -1.048665922869388e-01
2017-01-01T11:09:50.000  -4.123519971340189e+04   8.808545044910750e+03   3.082609449056374e+02  -6.429231173725700e-01  -3.004695111296535e+00  -1.048829841208627e-01
2017-01-01T11:10:00.000  -4.124161798217247e+04   8.778495755381753e+03   3.072120333471516e+02  -6.407305916348425e-01  -3.005162583154902e+00  -1.048993202010142e-01
2017-01-01T11:10:10.000  -4.124801432391785e+04   8.748441799435215e+03   3.061629587175599e+02  -6.385377256633934e-01  -3.005628457160512e+00  -1.049156005187272e-01
2017-01-01T11:10:20.000  -4.125438873531319e+04   8.718383192708905e+03   3.051137215625916e+02  -6.363445205990476e-01  -3.006092733071615e+00  -1.049318250655634e-01
2017-01-01T11:10:30.000  -4.126074121302331e+04   8.688319950948144e+03   3.040643224317304e+02  -6.341509775904750e-01  -3.006555410645708e+00  -1.049479938330586e-01
2017-01-01T11:10:40.000  -4.126707175374073e+04   8.658252089824253e+03   3.030147618718777e+02  -6.319570977809466e-01  -3.007016489642297e+00  -1.049641068128187e-01
2017-01-01T11:10:50.000  -4.127338035403745e+04   8.628179625637560e+03   3.019650404518907e+02  -6.297628823596272e-01  -3.007475969812123e+00  -1.049801639961428e-01
2017-01-01T11:11:00.000  -4.127966701051336e+04   8.598102574614439e+03   3.009151587380451e+02  -6.275683325102847e-01  -3.007933850907952e+00  -1.049961653744013e-01
2017-01-01T11:11:10.000  -4.128593171975767e+04   8.568020953088704e+03   2.998651173003671e+02  -6.253734494245244e-01  -3.008390132681775e+00  -1.050121109389372e-01
2017-01-01T11:11:20.000  -4.129217447845156e+04   8.537934777021777e+03   2.988149166958839e+02  -6.231782342667808e-01  -3.008844814892276e+00  -1.050280006813272e-01
2017-01-01T11:11:30.000  -4.129839528328300e+04   8.507844062398553e+03   2.977645574824421e+02  -6.209826882032001e-01  -3.009297897298640e+00  -1.050438345931659e-01
2017-01-01T11:11:40.000  -4.130459413096654e+04   8.477748825136134e+03   2.967140402155221e+02  -6.187868123949802e-01  -3.009749379661986e+00  -1.050596126661149e-01
2017-01-01T11:11:50.000  -4.131077101823443e+04   8.447649081118921e+03   2.956633654494623e+02  -6.165906080009329e-01  -3.010199261744723e+00  -1.050753348918814e-01
2017-01-01T11:12:00.000  -4.131692594183434e+04   8.417544846215711e+03   2.946125337380570e+02  -6.143940761787303e-01  -3.010647543310380e+00  -1.050910012622113e-01
2017-01-01T11:12:10.000  -4.132305889852197e+04   8.387436136315706e+03   2.935615456358125e+02  -6.121972180875327e-01  -3.011094224123077e+00  -1.051066117688711e-01
2017-01-01T11:12:20.000  -4.132916988505646e+04   8.357322967345110e+03   2.925104016985266e+02  -6.100000348891982e-01  -3.011539303947179e+00  -1.051221664036361e-01
2017-01-01T11:12:30.000  -4.133525889819460e+04   8.327205355302865e+03   2.914591024845363e+02  -6.078025277508936e-01  -3.011982782546882e+00  -1.051376651582756e-01
2017-01-01T11:12:40.000  -4.134132593470878e+04   8.297083316169041e+03   2.904076485515197e+02  -6.056046978384055e-01  -3.012424659687519e+00  -1.051531080245982e-01
2017-01-01T11:12:50.000  -4.134737099130916e+04   8.266956866302142e+03   2.893560404703650e+02  -6.034065463451338e-01  -3.012864935129894e+00  -1.051684949942545e-01
2017-01-01T11:13:00.000  -4.135339406473844e+04   8.236826021957731e+03   2.883042788083666e+02  -6.012080744569643e-01  -3.013303608637176e+00  -1.051838260589778e-01
2017-01-01T11:13:10.000  -4.135939515173643e+04   8.206690799467366e+03   2.872523641354719e+02  -5.990092833653283e-01  -3.013740679972324e+00  -1.051991012104939e-01
2017-01-01T11:13:20.000  -4.136537424917822e+04   8.176551214545455e+03   2.862002970000857e+02  -5.968101742166261e-01  -3.014176148908155e+00  -1.052143204408729e-01
2017-01-01T11:13:30.000  -4.137133135393621e+04   8.146407282980595e+03   2.851480779532026e+02  -5.946107481626705e-01  -3.014610015217281e+00  -1.052294837421779e-01
2017-01-01T11:13:40.000  -4.137726646291162e+04   8.116259020479013e+03   2.840957075429420e+02  -5.924110063492630e-01  -3.015042278674425e+00  -1.052445911065457e-01
2017-01-01T11:13:50.000  -4.138317957295475e+04   8.086106443054386e+03   2.830431863281550e+02  -5.902109499446375e-01  -3.015472939050594e+00  -1.052596425259830e-01
2017-01-01T11:14:00.000  -4.138907068092507e+04   8.055949566738585e+03   2.819905148683281e+02  -5.880105801183534e-01  -3.015901996117466e+00  -1.052746379925203e-01
2017-01-01T11:14:10.000  -4.139493978369010e+04   8.025788407581411e+03   2.809376937235733e+02  -5.858098980412788e-01  -3.016329449647302e+00  -1.052895774982080e-01
2017-01-01T11:14:20.000  -4.140078687807181e+04   7.995622981941171e+03   2.798847234647719e+02  -5.836089049067901e-01  -3.016755299409048e+00  -1.053044610349809e-01
2017-01-01T11:14:30.000  -4.140661196091987e+04   7.965453306093505e+03   2.788316046599193e+02  -5.814076019022316e-01  -3.017179545173670e+00  -1.053192885948441e-01
2017-01-01T11:14:40.000  -4.141241502908248e+04   7.935279396385415e+03   2.777783378795019e+02  -5.792059902201528e-01  -3.017602186712025e+00  -1.053340601697990e-01
2017-01-01T11:14:50.000  -4.141819607953742e+04   7.905101268554330e+03   2.767249236727279e+02  -5.770040710086264e-01  -3.018023223804405e+00  -1.053487757521768e-01
2017-01-01T11:15:00.000  -4.142395510926074e+04   7.874918938408983e+03   2.756713625912952e+02  -5.748018454209255e-01  -3.018442656230982e+00  -1.053634353343041e-01
2017-01-01T11:15:10.000  -4.142969211525694e+04   7.844732421675533e+03   2.746176551840182e+02  -5.725993146042987e-01  -3.018860483773993e+00  -1.053780389085801e-01
2017-01-01T11:15:20.000  -4.143540709448148e+04   7.814541734387918e+03   2.735638020104560e+02  -5.703964797284500e-01  -3.019276706212111e+00  -1.053925864672792e-01
2017-01-01T11:15:30.000  -4.144110004389918e+04   7.784346892598213e+03   2.725098036307997e+02  -5.681933419644060e-01  -3.019691323324689e+00  -1.054070780026991e-01
2017-01-01T11:15:40.000  -4.144677096048299e+04   7.754147912376374e+03   2.714556606058651e+02  -5.659899024844964e-01  -3.020104334891668e+00  -1.054215135071586e-01
2017-01-01T11:15:50.000  -4.145241984116235e+04   7.723944810101143e+03   2.704013735072471e+02  -5.637861624835824e-01  -3.020515740689823e+00  -1.054358929728656e-01
2017-01-01T11:16:00.000  -4.145804668289386e+04   7.693737602068439e+03   2.693469429036483e+02  -5.615821231504777e-01  -3.020925540497908e+00  -1.054502163920971e-01
2017-01-01T11:16:10.000  -4.146365148263260e+04   7.663526304648442e+03   2.682923693663648e+02  -5.593777856794178e-01  -3.021333734094567e+00  -1.054644837571261e-01
2017-01-01T11:16:20.000  -4.146923423746070e+04   7.633310933592466e+03   2.672376534450895e+02  -5.571731512194780e-01  -3.021740321267697e+00  -1.054786950605490e-01
2017-01-01T11:16:30.000  -4.147479494445830e+04   7.603091504727801e+03   2.661827956921674e+02  -5.549682209252799e-01  -3.022145301805046e+00  -1.054928502949571e-01
2017-01-01T11:16:40.000  -4.148033360073693e+04   7.572868033778387e+03   2.651277966563360e+02  -5.527629959439008e-01  -3.022548675496657e+00  -1.055069494530217e-01
2017-01-01T11:16:50.000  -4.148585020334871e+04   7.542640536846924e+03   2.640726568995543e+02  -5.505574774500551e-01  -3.022950442128240e+00  -1.055209925272626e-01
2017-01-01T11:17:00.000  -4.149134474936183e+04   7.512409030017095e+03   2.630173769831168e+02  -5.483516666170669e-01  -3.023350601486674e+00  -1.055349795102406e-01
2017-01-01T11:17:10.000  -4.149681723584342e+04   7.482173529442301e+03   2.619619574707523e+02  -5.461455646233475e-01  -3.023749153358767e+00  -1.055489103945137e-01
2017-01-01T11:17:20.000  -4.150226765986580e+04   7.451934051321799e+03   2.609063989277900e+02  -5.439391726506529e-01  -3.024146097531701e+00  -1.055627851726532e-01
2017-01-01T11:17:30.000  -4.150769601851045e+04   7.421690611870348e+03   2.598507019201002e+02  -5.417324918818689e-01  -3.024541433793327e+00  -1.055766038372536e-01
2017-01-01T11:17:40.000  -4.151310230887019e+04   7.391443227307304e+03   2.587948670137135e+02  -5.395255235002170e-01  -3.024935161932325e+00  -1.055903663809381e-01
2017-01-01T11:17:50.000  -4.151848652806933e+04   7.361191913748583e+03   2.577388947710503e+02  -5.373182686813690e-01  -3.025327281739658e+00  -1.056040727964101e-01
2017-01-01T11:18:00.000  -4.152384867324967e+04   7.330936687278609e+03   2.566827857534311e+02  -5.351107285986987e-01  -3.025717793007576e+00  -1.056177230764175e-01
2017-01-01T11:18:10.000  -4.152918874157089e+04   7.300677563950327e+03   2.556265405210781e+02  -5.329029044232825e-01  -3.026106695529624e+00  -1.056313172137538e-01
